NORAD_CAT_ID,OBJECT_NAME,OBJECT_TYPE,EPOCH,MEAN_MOTION,ECCENTRICITY,INCLINATION,RA_OF_ASC_NODE,ARG_OF_PERICENTER,MEAN_ANOMALY,BSTAR,MEAN_MOTION_DOT,MEAN_MOTION_DDOT,TLE_LINE0,TLE_LINE1,TLE_LINE2,SEMIMAJOR_AXIS,PERIOD,APOGEE,PERIGEE,DECAYED
53141.0,STARLINK-4103,PAYLOAD,2023-12-18 19:21:57,15.08835718,0.0001725,53.2163,218.8064,103.8919,256.2265,2.1907e-05,6.1e-07,0.0,0 STARLINK-4103,1 53141U 22083K   23352.80690989  .00000061  00000-0  21907-4 0  9993,2 53141  53.2163 218.8064 0001725 103.8919 256.2265 15.08835718 79281,6917.893,95.438,540.952,538.565,0.0
53141.0,STARLINK-4103,PAYLOAD,2023-12-18 20:57:20,15.08838406,0.0001686,53.2164,218.5101,104.0841,256.0338,-9.3207e-05,-1.771e-05,0.0,0 STARLINK-4103,1 53141U 22083K   23352.87314868 -.00001771  00000-0 -93207-4 0  9992,2 53141  53.2164 218.5101 0001686 104.0841 256.0338 15.08838406 78661,6917.885,95.438,540.917,538.584,0.0
53141.0,STARLINK-4103,PAYLOAD,2023-12-19 22:23:30,15.08834912,0.0001528,53.2152,213.753,75.6781,284.438,5.3605e-05,5.65e-06,0.0,0 STARLINK-4103,1 53141U 22083K   23353.93299537  .00000565  00000-0  53605-4 0  9991,2 53141  53.2152 213.7530 0001528  75.6781 284.4380 15.08834912 79450,6917.896,95.438,540.818,538.704,0.0
53141.0,STARLINK-4103,PAYLOAD,2023-12-20 22:14:17,15.08846965,0.0001526,53.2156,209.2898,75.2857,284.8304,0.00024912,3.68e-05,0.0,0 STARLINK-4103,1 53141U 22083K   23354.92659148  .00003680  00000-0  24912-3 0  9998,2 53141  53.2156 209.2898 0001526  75.2857 284.8304 15.08846965 78976,6917.859,95.437,540.78,538.668,0.0
53141.0,STARLINK-4103,PAYLOAD,2023-12-21 20:29:41,15.08843172,0.0001517,53.2162,205.1237,81.4534,278.663,0.00012995,1.781e-05,0.0,0 STARLINK-4103,1 53141U 22083K   23355.85395403  .00001781  00000-0  12995-3 0  9990,2 53141  53.2162 205.1237 0001517  81.4534 278.6630 15.08843172 79113,6917.871,95.437,540.785,538.686,0.0
53141.0,STARLINK-4103,PAYLOAD,2023-12-22 20:20:28,15.08846913,0.0001503,53.2155,200.6647,82.9689,277.1474,9.7568e-05,1.265e-05,0.0,0 STARLINK-4103,1 53141U 22083K   23356.84755216  .00001265  00000-0  97568-4 0  9999,2 53141  53.2155 200.6647 0001503  82.9689 277.1474 15.08846913 79264,6917.859,95.437,540.764,538.685,0.0
53141.0,STARLINK-4103,PAYLOAD,2023-12-23 13:49:43,15.08840956,0.0001442,53.2145,197.3949,88.0867,272.029,0.00011363,1.521e-05,0.0,0 STARLINK-4103,1 53141U 22083K   23357.57619500  .00001521  00000-0  11363-3 0  9998,2 53141  53.2145 197.3949 0001442  88.0867 272.0290 15.08840956 79370,6917.877,95.437,540.74,538.745,0.0
53141.0,STARLINK-4103,PAYLOAD,2023-12-23 18:35:52,15.08841238,0.0001432,53.2148,196.5012,99.9388,260.1765,9.5417e-05,1.231e-05,0.0,0 STARLINK-4103,1 53141U 22083K   23357.77491387  .00001231  00000-0  95417-4 0  9992,2 53141  53.2148 196.5012 0001432  99.9388 260.1765 15.08841238 80037,6917.877,95.437,540.732,538.751,0.0
53141.0,STARLINK-4103,PAYLOAD,2023-12-23 23:22:01,15.08841625,0.0001433,53.2148,195.6091,99.1409,260.9745,9.1805e-05,1.173e-05,0.0,0 STARLINK-4103,1 53141U 22083K   23357.97363355  .00001173  00000-0  91805-4 0  9999,2 53141  53.2148 195.6091 0001433  99.1409 260.9745 15.08841625 79439,6917.875,95.437,540.732,538.749,0.0
53141.0,STARLINK-4103,PAYLOAD,2023-12-24 20:02:02,15.08839492,0.0001441,53.2159,191.7427,101.5164,258.599,8.3062e-05,1.034e-05,0.0,0 STARLINK-4103,1 53141U 22083K   23358.83475443  .00001034  00000-0  83062-4 0  9999,2 53141  53.2159 191.7427 0001441 101.5164 258.5990 15.08839492 80195,6917.882,95.438,540.744,538.75,0.0
53141.0,STARLINK-4103,PAYLOAD,2023-12-24 23:12:48,15.08840813,0.0001443,53.2159,191.1476,102.646,257.4694,9.1796e-05,1.173e-05,0.0,0 STARLINK-4103,1 53141U 22083K   23358.96723354  .00001173  00000-0  91796-4 0  9997,2 53141  53.2159 191.1476 0001443 102.6460 257.4694 15.08840813 79585,6917.878,95.438,540.741,538.745,0.0
53141.0,STARLINK-4103,PAYLOAD,2023-12-25 18:17:26,15.08840704,0.0001389,53.2162,187.579,102.062,258.0528,7.6616e-05,9.32e-06,0.0,0 STARLINK-4103,1 53141U 22083K   23359.76211430  .00000932  00000-0  76616-4 0  9999,2 53141  53.2162 187.5790 0001389 102.0620 258.0528 15.08840704 79704,6917.878,95.438,540.704,538.782,0.0
53141.0,STARLINK-4103,PAYLOAD,2023-12-26 11:46:41,15.08834939,0.0001358,53.2162,184.3083,97.7149,262.3997,5.5205e-05,5.91e-06,0.0,0 STARLINK-4103,1 53141U 22083K   23360.49076062  .00000591  00000-0  55205-4 0  9993,2 53141  53.2162 184.3083 0001358  97.7149 262.3997 15.08834939 80440,6917.896,95.438,540.7,538.821,0.0
53141.0,STARLINK-4103,PAYLOAD,2023-12-26 13:22:04,15.08838566,0.0001315,53.2161,184.012,92.294,267.8203,3.9072e-05,3.34e-06,0.0,0 STARLINK-4103,1 53141U 22083K   23360.55699878  .00000334  00000-0  39072-4 0  9995,2 53141  53.2161 184.0120 0001315  92.2940 267.8203 15.08838566 79820,6917.885,95.438,540.659,538.84,0.0
53141.0,STARLINK-4103,PAYLOAD,2023-12-26 19:43:37,15.08837496,0.0001329,53.2162,182.8226,91.4925,268.622,2.009e-05,3.2e-07,0.0,0 STARLINK-4103,1 53141U 22083K   23360.82195975  .00000032  00000-0  20090-4 0  9999,2 53141  53.2162 182.8226 0001329  91.4925 268.6220 15.08837496 79866,6917.888,95.438,540.672,538.834,0.0
53141.0,STARLINK-4103,PAYLOAD,2023-12-27 19:34:24,15.08841602,0.0001309,53.216,178.3629,91.6182,268.496,7.877e-05,9.66e-06,0.0,0 STARLINK-4103,1 53141U 22083K   23361.81555659  .00000966  00000-0  78770-4 0  9992,2 53141  53.2160 178.3629 0001309  91.6182 268.4960 15.08841602 80647,6917.875,95.437,540.646,538.835,0.0
53141.0,STARLINK-4103,PAYLOAD,2023-12-27 21:09:47,15.08841525,0.0001315,53.216,178.0655,90.3631,269.7511,7.5657e-05,9.16e-06,0.0,0 STARLINK-4103,1 53141U 22083K   23361.88179644  .00000916  00000-0  75657-4 0  9991,2 53141  53.2160 178.0655 0001315  90.3631 269.7511 15.08841525 80027,6917.876,95.437,540.65,538.831,0.0
53141.0,STARLINK-4103,PAYLOAD,2023-12-28 11:28:15,15.08837977,0.0001349,53.216,175.3892,88.1625,271.9521,6.7759e-05,7.91e-06,0.0,0 STARLINK-4103,1 53141U 22083K   23362.47795975  .00000791  00000-0  67759-4 0  9993,2 53141  53.2160 175.3892 0001349  88.1625 271.9521 15.08837977 80117,6917.887,95.438,540.685,538.818,0.0
53141.0,STARLINK-4103,PAYLOAD,2023-12-28 19:25:11,15.08839269,0.0001352,53.2162,173.9025,87.0669,273.0478,7.0641e-05,8.36e-06,0.0,0 STARLINK-4103,1 53141U 22083K   23362.80915925  .00000836  00000-0  70641-4 0  9993,2 53141  53.2162 173.9025 0001352  87.0669 273.0478 15.08839269 80166,6917.883,95.438,540.683,538.812,0.0
53141.0,STARLINK-4103,PAYLOAD,2023-12-29 11:19:02,15.08840691,0.000136,53.2161,170.9288,85.8741,274.2407,5.0133e-05,5.1e-06,0.0,0 STARLINK-4103,1 53141U 22083K   23363.47155908  .00000510  00000-0  50133-4 0  9997,2 53141  53.2161 170.9288 0001360  85.8741 274.2407 15.08840691 80266,6917.878,95.438,540.684,538.802,0.0
53141.0,STARLINK-4103,PAYLOAD,2023-12-29 17:40:35,15.0884253,0.0001346,53.2159,169.7393,86.4167,273.6979,4.8116e-05,4.78e-06,0.0,0 STARLINK-4103,1 53141U 22083K   23363.73651723  .00000478  00000-0  48116-4 0  9993,2 53141  53.2159 169.7393 0001346  86.4167 273.6979 15.08842530 80305,6917.873,95.437,540.669,538.807,0.0
53141.0,STARLINK-4103,PAYLOAD,2023-12-30 11:09:49,15.08841228,0.0001376,53.216,166.4686,80.0482,280.0666,5.1903e-05,5.38e-06,0.0,0 STARLINK-4103,1 53141U 22083K   23364.46515763  .00000538  00000-0  51903-4 0  9992,2 53141  53.2160 166.4686 0001376  80.0482 280.0666 15.08841228 81049,6917.877,95.437,540.694,538.79,0.0
53141.0,STARLINK-4103,PAYLOAD,2023-12-30 14:20:35,15.08841595,0.0001352,53.216,165.8738,82.4707,277.6439,5.355e-05,5.64e-06,0.0,0 STARLINK-4103,1 53141U 22083K   23364.59763707  .00000564  00000-0  53550-4 0  9998,2 53141  53.2160 165.8738 0001352  82.4707 277.6439 15.08841595 80439,6917.876,95.437,540.676,538.805,0.0
53141.0,STARLINK-4103,PAYLOAD,2023-12-30 17:31:22,15.08842408,0.0001304,53.2161,165.2788,87.043,273.0711,5.5299e-05,5.92e-06,0.0,0 STARLINK-4103,1 53141U 22083K   23364.73011605  .00000592  00000-0  55299-4 0  9990,2 53141  53.2161 165.2788 0001304  87.0430 273.0711 15.08842408 80459,6917.873,95.437,540.64,538.836,0.0
53141.0,STARLINK-4103,PAYLOAD,2023-12-31 17:22:09,15.08837721,0.0001299,53.2161,160.8182,87.6637,272.4503,-1.594e-06,-3.13e-06,0.0,0 STARLINK-4103,1 53141U 22083K   23365.72372070 -.00000313  00000-0 -15940-5 0  9999,2 53141  53.2161 160.8182 0001299  87.6637 272.4503 15.08837721 81237,6917.887,95.438,540.651,538.854,0.0
53141.0,STARLINK-4103,PAYLOAD,2024-01-01 14:02:10,15.08839938,0.0001388,53.2176,156.9543,92.1729,267.9422,2.9757e-05,1.86e-06,0.0,0 STARLINK-4103,1 53141U 22083K   24001.58483901  .00000186  00000-0  29757-4 0  9993,2 53141  53.2176 156.9543 0001388  92.1729 267.9422 15.08839938 80737,6917.881,95.438,540.706,538.785,0.0
53141.0,STARLINK-4103,PAYLOAD,2024-01-01 17:12:56,15.08841298,0.0001387,53.2176,156.3594,92.3463,267.7688,3.95e-05,3.41e-06,0.0,0 STARLINK-4103,1 53141U 22083K   24001.71731778  .00000341  00000-0  39500-4 0  9996,2 53141  53.2176 156.3594 0001387  92.3463 267.7688 15.08841298 80759,6917.876,95.437,540.701,538.782,0.0
53141.0,STARLINK-4103,PAYLOAD,2024-01-02 13:52:57,15.08833762,0.0001347,53.217,152.4916,84.2107,275.9039,2.2091e-05,6.4e-07,0.0,0 STARLINK-4103,1 53141U 22083K   24002.57844512  .00000064  00000-0  22091-4 0  9991,2 53141  53.2170 152.4916 0001347  84.2107 275.9039 15.08833762 80881,6917.899,95.438,540.696,538.833,0.0
53141.0,STARLINK-4103,PAYLOAD,2024-01-02 18:39:06,15.08836996,0.0001394,53.217,151.5995,81.9261,278.189,4.839e-05,4.82e-06,0.0,0 STARLINK-4103,1 53141U 22083K   24002.77716299  .00000482  00000-0  48390-4 0  9997,2 53141  53.2170 151.5995 0001394  81.9261 278.1890 15.08836996 81541,6917.89,95.438,540.719,538.79,0.0
53141.0,STARLINK-4103,PAYLOAD,2024-01-03 13:43:45,15.08833494,0.000144,53.2168,148.032,77.6318,282.4835,-1.441e-05,-5.17e-06,0.0,0 STARLINK-4103,1 53141U 22083K   24003.57205040 -.00000517  00000-0 -14410-4 0  9990,2 53141  53.2168 148.0320 0001440  77.6318 282.4835 15.08833494 81039,6917.9,95.438,540.761,538.769,0.0
